NORAD_CAT_ID,OBJECT_NAME,OBJECT_TYPE,EPOCH,MEAN_MOTION,ECCENTRICITY,INCLINATION,RA_OF_ASC_NODE,ARG_OF_PERICENTER,MEAN_ANOMALY,BSTAR,MEAN_MOTION_DOT,MEAN_MOTION_DDOT,TLE_LINE0,TLE_LINE1,TLE_LINE2,SEMIMAJOR_AXIS,PERIOD,APOGEE,PERIGEE,DECAYED
54769.0,STARLINK-5404,PAYLOAD,2023-11-24 21:44:56,15.08839639,0.0001422,53.2154,196.1327,93.0343,267.0812,0.00018658,2.683e-05,0.0,0 STARLINK-5404,1 54769U 22175M   23328.90621163  .00002683  00000-0  18658-3 0  9994,2 54769  53.2154 196.1327 0001422  93.0343 267.0812 15.08839639 53740,6917.881,95.438,540.73,538.763,0.0
54769.0,STARLINK-5404,PAYLOAD,2023-11-25 21:35:43,15.08865851,0.0001471,53.2152,191.6727,89.8262,270.2899,0.00096266,0.00015077,0.0,0 STARLINK-5404,1 54769U 22175M   23329.89980839  .00015077  00000-0  96266-3 0  9993,2 54769  53.2152 191.6727 0001471  89.8262 270.2899 15.08865851 53891,6917.801,95.436,540.684,538.649,0.0
54769.0,STARLINK-5404,PAYLOAD,2023-11-26 00:46:29,15.08874036,0.0001455,53.2152,191.0775,94.8965,265.2193,0.0011155,0.00017526,0.0,0 STARLINK-5404,1 54769U 22175M   23330.03228464  .00017526  00000-0  11155-2 0  9994,2 54769  53.2152 191.0775 0001455  94.8965 265.2193 15.08874036 51755,6917.776,95.435,540.648,538.635,0.0
54769.0,STARLINK-5404,PAYLOAD,2023-11-26 19:51:07,15.08841444,0.0001378,53.2154,187.5093,101.1775,258.9372,-1.26e-05,-4.88e-06,0.0,0 STARLINK-5404,1 54769U 22175M   23330.82716956 -.00000488  00000-0 -12600-4 0  9998,2 54769  53.2154 187.5093 0001378 101.1775 258.9372 15.08841444 51873,6917.876,95.437,540.694,538.788,0.0
54769.0,STARLINK-5404,PAYLOAD,2023-11-26 21:26:30,15.08841392,0.0001389,53.2154,187.2117,103.6095,256.5052,-1.8514e-05,-5.83e-06,0.0,0 STARLINK-5404,1 54769U 22175M   23330.89340918 -.00000583  00000-0 -18514-4 0  9992,2 54769  53.2154 187.2117 0001389 103.6095 256.5052 15.08841392 54044,6917.876,95.437,540.702,538.78,0.0
54769.0,STARLINK-5404,PAYLOAD,2023-11-27 00:37:16,15.08838034,0.0001344,53.2155,186.6174,99.3908,260.7236,2.9921e-05,1.88e-06,0.0,0 STARLINK-5404,1 54769U 22175M   23331.02588989  .00000188  00000-0  29921-4 0  9993,2 54769  53.2155 186.6174 0001344  99.3908 260.7236 15.08838034 54068,6917.886,95.438,540.681,538.822,0.0
54769.0,STARLINK-5404,PAYLOAD,2023-11-27 18:06:31,15.08833059,0.0001458,53.2156,183.3448,111.2369,248.8779,7.9093e-05,9.71e-06,0.0,0 STARLINK-5404,1 54769U 22175M   23331.75453479  .00000971  00000-0  79093-4 0  9993,2 54769  53.2156 183.3448 0001458 111.2369 248.8779 15.08833059 52012,6917.902,95.438,540.775,538.758,0.0
54769.0,STARLINK-5404,PAYLOAD,2023-11-27 21:17:17,15.08838803,0.0001431,53.2157,182.7503,104.8376,255.2774,1.0177e-05,-1.26e-06,0.0,0 STARLINK-5404,1 54769U 22175M   23331.88701322 -.00000126  00000-0  10177-4 0  9991,2 54769  53.2157 182.7503 0001431 104.8376 255.2774 15.08838803 54195,6917.884,95.438,540.739,538.759,0.0
54769.0,STARLINK-5404,PAYLOAD,2023-11-28 14:46:32,15.08841263,0.0001445,53.2153,179.4795,108.0266,252.0883,0.00023824,3.506e-05,0.0,0 STARLINK-5404,1 54769U 22175M   23332.61565453  .00003506  00000-0  23824-3 0  9992,2 54769  53.2153 179.4795 0001445 108.0266 252.0883 15.08841263 54309,6917.877,95.437,540.741,538.742,0.0
54769.0,STARLINK-5404,PAYLOAD,2023-11-28 19:32:41,15.08845549,0.0001443,53.2154,178.5868,112.5798,247.5346,0.00028599,4.267e-05,0.0,0 STARLINK-5404,1 54769U 22175M   23332.81437258  .00004267  00000-0  28599-3 0  9994,2 54769  53.2154 178.5868 0001443 112.5798 247.5346 15.08845549 52176,6917.863,95.437,540.727,538.73,0.0
54769.0,STARLINK-5404,PAYLOAD,2023-11-29 13:01:56,15.08843889,0.0001663,53.2156,175.3178,132.1729,227.9405,0.00017682,2.527e-05,0.0,0 STARLINK-5404,1 54769U 22175M   23333.54301203  .00002527  00000-0  17682-3 0  9993,2 54769  53.2156 175.3178 0001663 132.1729 227.9405 15.08843889 54448,6917.869,95.437,540.884,538.583,0.0
54769.0,STARLINK-5404,PAYLOAD,2023-11-29 19:23:28,15.08842028,0.0001649,53.2159,174.1288,122.36,237.7552,6.9089e-05,8.12e-06,0.0,0 STARLINK-5404,1 54769U 22175M   23333.80797300  .00000812  00000-0  69089-4 0  9993,2 54769  53.2159 174.1288 0001649 122.3600 237.7552 15.08842028 52324,6917.874,95.437,540.88,538.598,0.0
54769.0,STARLINK-5404,PAYLOAD,2023-11-30 20:49:39,15.08842651,0.0001448,53.2162,169.3717,97.195,262.9207,6.1364e-05,6.89e-06,0.0,0 STARLINK-5404,1 54769U 22175M   23334.86781543  .00000689  00000-0  61364-4 0  9992,2 54769  53.2162 169.3717 0001448  97.1950 262.9207 15.08842651 52481,6917.872,95.437,540.739,538.736,0.0
54769.0,STARLINK-5404,PAYLOAD,2023-12-01 19:05:03,15.08843367,0.0001486,53.216,165.2097,77.8812,282.2346,0.00018351,2.634e-05,0.0,0 STARLINK-5404,1 54769U 22175M   23335.79517763  .00002634  00000-0  18351-3 0  9995,2 54769  53.2160 165.2097 0001486  77.8812 282.2346 15.08843367 54788,6917.87,95.437,540.763,538.707,0.0
54769.0,STARLINK-5404,PAYLOAD,2023-12-02 18:55:49,15.08851976,0.0001708,53.2159,160.7496,119.5079,240.6084,0.00020811,3.027e-05,0.0,0 STARLINK-5404,1 54769U 22175M   23336.78876828  .00003027  00000-0  20811-3 0  9996,2 54769  53.2159 160.7496 0001708 119.5079 240.6084 15.08851976 52774,6917.844,95.437,540.89,538.527,0.0
54769.0,STARLINK-5404,PAYLOAD,2023-12-03 18:46:37,15.08834296,0.0001276,53.2156,156.2866,99.022,261.0917,-4.1178e-05,-9.43e-06,0.0,0 STARLINK-5404,1 54769U 22175M   23337.78237932 -.00000943  00000-0 -41178-4 0  9990,2 54769  53.2156 156.2866 0001276  99.0220 261.0917 15.08834296 52927,6917.898,95.438,540.646,538.88,0.0
54769.0,STARLINK-5404,PAYLOAD,2023-12-04 21:48:12,15.08818642,0.0001484,53.2158,151.2294,68.8027,291.3123,0.00037618,5.701e-05,0.0,0 STARLINK-5404,1 54769U 22175M   23338.90847386  .00005701  00000-0  37618-3 0  9993,2 54769  53.2158 151.2294 0001484  68.8027 291.3123 15.08818642 55250,6917.946,95.439,540.837,538.784,0.0
54769.0,STARLINK-5404,PAYLOAD,2023-12-05 12:06:40,15.08825745,0.0001271,53.2167,148.557,71.4485,288.6645,0.00025074,3.703e-05,0.0,0 STARLINK-5404,1 54769U 22175M   23339.50463055  .00003703  00000-0  25074-3 0  9990,2 54769  53.2167 148.5570 0001271  71.4485 288.6645 15.08825745 53188,6917.924,95.438,540.668,538.91,0.0
54769.0,STARLINK-5404,PAYLOAD,2023-12-05 13:42:03,15.08804403,0.0001485,53.2156,148.2595,71.2747,288.8406,0.00061166,9.451e-05,0.0,0 STARLINK-5404,1 54769U 22175M   23339.57087501  .00009451  00000-0  61166-3 0  9993,2 54769  53.2156 148.2595 0001485  71.2747 288.8406 15.08804403 55352,6917.989,95.44,540.882,538.827,0.0
54769.0,STARLINK-5404,PAYLOAD,2023-12-07 19:45:09,15.08844122,0.0001259,53.2161,138.1472,82.9776,277.1359,4.6656e-05,4.55e-06,0.0,0 STARLINK-5404,1 54769U 22175M   23341.82302270  .00000455  00000-0  46656-4 0  9990,2 54769  53.2161 138.1472 0001259  82.9776 277.1359 15.08844122 53538,6917.868,95.437,540.604,538.862,0.0
54769.0,STARLINK-5404,PAYLOAD,2023-12-07 22:55:56,15.08830171,0.0001208,53.2161,137.5531,83.1436,276.9694,-8.1384e-05,-1.582e-05,0.0,0 STARLINK-5404,1 54769U 22175M   23341.95551364 -.00001582  00000-0 -81384-4 0  9995,2 54769  53.2161 137.5531 0001208  83.1436 276.9694 15.08830171 53557,6917.91,95.438,540.611,538.94,0.0
54769.0,STARLINK-5404,PAYLOAD,2023-12-08 10:03:39,15.08819468,0.0001312,53.2163,135.4715,81.8625,278.2516,-7.876e-05,-1.54e-05,0.0,0 STARLINK-5404,1 54769U 22175M   23342.41920166 -.00001540  00000-0 -78760-4 0  9995,2 54769  53.2163 135.4715 0001312  81.8625 278.2516 15.08819468 53623,6917.943,95.439,540.716,538.901,0.0
54769.0,STARLINK-5404,PAYLOAD,2023-12-08 13:14:25,15.08820811,0.0001344,53.2161,134.8776,75.6218,284.4923,-8.1692e-05,-1.587e-05,0.0,0 STARLINK-5404,1 54769U 22175M   23342.55168320 -.00001587  00000-0 -81692-4 0  9995,2 54769  53.2161 134.8776 0001344  75.6218 284.4923 15.08820811 55802,6917.939,95.439,540.734,538.874,0.0
54769.0,STARLINK-5404,PAYLOAD,2023-12-08 21:11:21,15.08824225,0.0001245,53.2166,133.3894,85.1198,274.9937,-4.042e-05,-9.31e-06,0.0,0 STARLINK-5404,1 54769U 22175M   23342.88288262 -.00000931  00000-0 -40420-4 0  9995,2 54769  53.2166 133.3894 0001245  85.1198 274.9937 15.08824225 55852,6917.929,95.439,540.655,538.932,0.0
54769.0,STARLINK-5404,PAYLOAD,2023-12-08 22:46:44,15.0882501,0.000121,53.2166,133.0921,87.5163,272.5968,-2.4194e-05,-6.73e-06,0.0,0 STARLINK-5404,1 54769U 22175M   23342.94912206 -.00000673  00000-0 -24194-4 0  9997,2 54769  53.2166 133.0921 0001210  87.5163 272.5968 15.08825010 53703,6917.926,95.439,540.628,538.954,0.0
54769.0,STARLINK-5404,PAYLOAD,2023-12-09 09:54:25,15.08834495,0.0001265,53.2167,131.0106,81.6573,278.4563,6.6743e-05,7.74e-06,0.0,0 STARLINK-5404,1 54769U 22175M   23343.41279840  .00000774  00000-0  66743-4 0  9996,2 54769  53.2167 131.0106 0001265  81.6573 278.4563 15.08834495 53777,6917.897,95.438,540.637,538.887,0.0
54769.0,STARLINK-5404,PAYLOAD,2023-12-09 13:05:11,15.08836798,0.0001214,53.2167,130.4158,85.325,274.788,0.00010839,1.437e-05,0.0,0 STARLINK-5404,1 54769U 22175M   23343.54527737  .00001437  00000-0  10839-3 0  9992,2 54769  53.2167 130.4158 0001214  85.3250 274.7880 15.08836798 55955,6917.89,95.438,540.595,538.915,0.0
54769.0,STARLINK-5404,PAYLOAD,2023-12-09 21:02:08,15.08839789,0.0001303,53.2151,128.9289,81.0151,279.0989,0.00043069,6.573e-05,0.0,0 STARLINK-5404,1 54769U 22175M   23343.87648224  .00006573  00000-0  43069-3 0  9990,2 54769  53.2151 128.9289 0001303  81.0151 279.0989 15.08839789 56005,6917.881,95.438,540.647,538.845,0.0
54769.0,STARLINK-5404,PAYLOAD,2023-12-10 14:31:22,15.08857317,0.0001348,53.215,125.6576,77.6781,282.4362,0.00067816,0.00010527,0.0,0 STARLINK-5404,1 54769U 22175M   23344.60511906  .00010527  00000-0  67816-3 0  9998,2 54769  53.2150 125.6576 0001348  77.6781 282.4362 15.08857317 56118,6917.827,95.436,540.625,538.76,0.0
54769.0,STARLINK-5404,PAYLOAD,2023-12-11 14:22:08,15.08863198,0.0001382,53.2155,121.1967,76.1262,283.9883,0.0003654,5.536e-05,0.0,0 STARLINK-5404,1 54769U 22175M   23345.59870678  .00005536  00000-0  36540-3 0  9995,2 54769  53.2155 121.1967 0001382  76.1262 283.9883 15.08863198 56268,6917.809,95.436,540.631,538.718,0.0
